OBJECT_NAME,OBJECT_ID,EPOCH,MEAN_MOTION,ECCENTRICITY,INCLINATION,RA_OF_ASC_NODE,ARG_OF_PERICENTER,MEAN_ANOMALY,EPHEMERIS_TYPE,CLASSIFICATION_TYPE,NORAD_CAT_ID,ELEMENT_SET_NO,REV_AT_EPOCH,BSTAR,MEAN_MOTION_DOT,MEAN_MOTION_DDOT
FLORIPASAT-1,2019-093G,2026-07-17T07:07:23.214144,15.04148265,.00106954,97.7921,292.7546,333.2561,26.8112,0,U,44885,999,35717,.10925222E-3,.1453E-4,0
SHUNTIAN,2019-093H,2026-07-17T06:07:56.209152,14.95282696,.00107036,97.8010,286.2644,331.0877,28.9749,0,U,44886,999,35667,.11203332E-3,.1176E-4,0
ELEKTRO-L 3,2019-095A,2026-07-17T01:51:38.672352,1.00271059,.0001135,0.3320,82.1404,20.6078,296.0440,0,U,44903,999,2400,0,-.107E-5,0
GONETS-M 14,2019-096A,2026-07-17T05:38:25.727136,12.42870833,.00144261,82.5215,66.0101,86.4018,273.8711,0,U,44905,999,29741,-.13120437E-3,-.8E-7,0
GONETS-M 15,2019-096B,2026-07-17T06:20:37.836384,12.42883272,.00161452,82.5234,66.4582,108.0204,252.2637,0,U,44906,999,29738,.12696673E-3,.28E-6,0
GONETS-M 16,2019-096C,2026-07-17T06:57:46.343808,12.42892689,.00110975,82.5180,65.3801,146.8478,213.3299,0,U,44907,999,29737,.18335087E-3,.35E-6,0
RS-44 & BREEZE-KM R/B,2019-096E,2026-07-17T06:15:55.441440,12.79748896,.02185111,82.5243,319.7219,74.1844,288.3230,0,U,44909,999,30619,.31533461E-4,.21E-6,0
JILIN-1 KUANFU 01,2020-003A,2026-07-17T06:55:30.783072,15.10873675,.00094635,97.5020,271.6573,189.3859,170.7196,0,U,45016,999,35987,.97932059E-4,.1567E-4,0
XINGYUN-2 01,2020-028A,2026-07-17T06:09:08.327232,15.11921137,.00108378,97.4873,190.0647,97.8892,262.3569,0,U,45602,999,33938,.10701684E-3,.1771E-4,0
XINGYUN-2 02,2020-028B,2026-07-17T07:21:28.594080,15.11640126,.00113216,97.5067,203.7710,158.8503,201.3197,0,U,45603,999,33938,.34312021E-4,.52E-5,0
HAIYANG-1D,2020-036A,2026-07-17T07:42:59.336640,14.34182548,.00040072,98.4562,139.3477,66.2488,293.9118,0,U,45721,999,31929,.73378851E-4,.163E-5,0
M2 PATHFINDER,2020-037E,2026-07-16T23:18:19.247904,15.04794277,.00127537,97.8141,29.5398,57.0170,303.2280,0,U,45727,999,32997,.50756198E-4,.653E-5,0
GAOFEN DUOMO (GFDM),2020-042A,2026-07-17T06:56:04.359840,14.76803671,.00105889,97.7729,257.0779,346.4464,13.6460,0,U,45856,999,32545,.27555255E-4,.144E-5,0
ZIYUAN 3-03 (ZY 3-03),2020-051A,2026-07-17T05:50:08.680128,15.21210913,.00029315,97.5363,265.2629,235.1278,124.9682,0,U,45939,999,33191,.13528351E-3,.2947E-4,0
NEMO-HD,2020-061F,2026-07-17T05:58:05.880288,15.45164455,.00010095,97.1898,259.9072,103.0513,257.0849,0,U,46277,999,32662,.13072729E-3,.611E-4,0
NAPA-1,2020-061BA,2026-07-17T07:23:36.015072,15.72193009,.00026497,97.2434,273.5676,172.3875,187.7430,0,U,46320,999,32646,.39355987E-3,.51853E-3,0
JILIN-1 GAOFEN 3E,2020-065D,2026-07-17T07:50:48.556032,15.67438051,.00098595,97.2204,251.7115,65.2091,295.0195,0,U,46457,999,32447,.43526898E-3,.47226E-3,0
JILIN-1 GAOFEN 3F,2020-065E,2026-07-17T06:46:10.173216,15.64111596,.00111667,97.2160,248.8446,50.9385,309.2866,0,U,46458,999,32440,.39720995E-3,.37713E-3,0
JILIN-1 GAOFEN 3G,2020-065F,2026-07-17T06:40:10.782048,15.77291048,.00057201,97.2220,256.2065,263.5673,96.4942,0,U,46459,999,32467,.50030301E-3,.82528E-3,0
JILIN-1 GAOFEN 3H,2020-065G,2026-07-17T07:51:45.592128,15.72549993,.00067343,97.2167,252.3764,195.7513,164.3543,0,U,46460,999,32461,.47811426E-3,.64138E-3,0
HAIYANG-2C,2020-066A,2026-07-17T07:30:15.601248,13.83372097,.00075135,65.9972,140.2791,237.0525,122.9821,0,U,46469,999,29366,-.18692402E-3,-.287E-5,0
HJ-2A,2020-067A,2026-07-17T07:43:11.383392,14.76550783,.00043355,97.8824,275.9805,149.7085,210.4377,0,U,46478,999,31270,.75068842E-4,.474E-5,0
HJ-2B,2020-067B,2026-07-17T06:58:16.587264,14.76510328,.00019921,97.8889,276.9958,103.4436,256.6997,0,U,46479,999,31270,-.27763303E-4,-.243E-5,0
GONETS-M 17,2020-068A,2026-07-17T07:34:26.847264,12.42874151,.00217426,82.5018,328.7587,331.8356,28.1546,0,U,46486,999,26290,.43092236E-3,.69E-6,0
GONETS-M 18,2020-068B,2026-07-17T06:42:05.769216,12.42875073,.00189802,82.4972,327.8878,328.4730,31.5211,0,U,46487,999,26288,.42754394E-3,.69E-6,0
GONETS-M 19,2020-068C,2026-07-17T08:02:00.398112,12.42893178,.00129517,82.4997,328.3092,345.2444,14.8256,0,U,46488,999,26299,.83523396E-3,.126E-5,0
DEKART,2020-068H,2026-07-17T06:30:42.087744,15.37977421,.00094921,97.8741,209.7108,165.9301,194.2208,0,U,46493,999,32039,.17131568E-3,.6315E-4,0
