FLORIPASAT-1            
1 44885U 19093G   26198.29679646  .00001453  00000+0  10925-3 0  9998
2 44885  97.7921 292.7546 0010695 333.2561  26.8112 15.04148265357174
SHUNTIAN                
1 44886U 19093H   26198.25551168  .00001176  00000+0  11203-3 0  9995
2 44886  97.8010 286.2644 0010703 331.0877  28.9749 14.95282696356677
ELEKTRO-L 3             
1 44903U 19095A   26198.07753093 -.00000107  00000+0  00000+0 0  9991
2 44903   0.3320  82.1404 0001135  20.6078 296.0440  1.00271059 24008
GONETS-M 14             
1 44905U 19096A   26198.23501999 -.00000008  00000+0 -13120-3 0  9990
2 44905  82.5215  66.0101 0014426  86.4018 273.8711 12.42870833297415
GONETS-M 15             
1 44906U 19096B   26198.26432681  .00000028  00000+0  12697-3 0  9993
2 44906  82.5234  66.4582 0016145 108.0204 252.2637 12.42883272297387
GONETS-M 16             
1 44907U 19096C   26198.29011972  .00000035  00000+0  18335-3 0  9996
2 44907  82.5180  65.3801 0011097 146.8478 213.3299 12.42892689297377
RS-44 & BREEZE-KM R/B   
1 44909U 19096E   26198.26105835  .00000021  00000+0  31533-4 0  9998
2 44909  82.5243 319.7219 0218511  74.1844 288.3230 12.79748896306196
JILIN-1 KUANFU 01       
1 45016U 20003A   26198.28855073  .00001567  00000+0  97932-4 0  9997
2 45016  97.5020 271.6573 0009463 189.3859 170.7196 15.10873675359873
XINGYUN-2 01            
1 45602U 20028A   26198.25634638  .00001771  00000+0  10702-3 0  9990
2 45602  97.4873 190.0647 0010837  97.8892 262.3569 15.11921137339386
XINGYUN-2 02            
1 45603U 20028B   26198.30658095  .00000520  00000+0  34312-4 0  9995
2 45603  97.5067 203.7710 0011321 158.8503 201.3197 15.11640126339388
HAIYANG-1D              
1 45721U 20036A   26198.32152010  .00000163  00000+0  73379-4 0  9992
2 45721  98.4562 139.3477 0004007  66.2488 293.9118 14.34182548319291
M2 PATHFINDER           
1 45727U 20037E   26197.97105611  .00000653  00000+0  50756-4 0  9992
2 45727  97.8141  29.5398 0012753  57.0170 303.2280 15.04794277329975
GAOFEN DUOMO (GFDM)     
1 45856U 20042A   26198.28893935  .00000144  00000+0  27555-4 0  9995
2 45856  97.7729 257.0779 0010588 346.4464  13.6460 14.76803671325453
ZIYUAN 3-03 (ZY 3-03)   
1 45939U 20051A   26198.24315602  .00002947  00000+0  13528-3 0  9990
2 45939  97.5363 265.2629 0002931 235.1278 124.9682 15.21210913331914
NEMO-HD                 
1 46277U 20061F   26198.24867917  .00006110  00000+0  13073-3 0  9999
2 46277  97.1898 259.9072 0001009 103.0513 257.0849 15.45164455326621
NAPA-1                  
1 46320U 20061BA  26198.30805573  .00051853  00000+0  39356-3 0  9991
2 46320  97.2434 273.5676 0002649 172.3875 187.7430 15.72193009326464
JILIN-1 GAOFEN 3E       
1 46457U 20065D   26198.32695088  .00047226  00000+0  43527-3 0  9990
2 46457  97.2204 251.7115 0009859  65.2091 295.0195 15.67438051324479
JILIN-1 GAOFEN 3F       
1 46458U 20065E   26198.28206219  .00037713  00000+0  39721-3 0  9991
2 46458  97.2160 248.8446 0011166  50.9385 309.2866 15.64111596324401
JILIN-1 GAOFEN 3G       
1 46459U 20065F   26198.27790257  .00082528  00000+0  50030-3 0  9991
2 46459  97.2220 256.2065 0005720 263.5673  96.4942 15.77291048324674
JILIN-1 GAOFEN 3H       
1 46460U 20065G   26198.32761102  .00064138  00000+0  47811-3 0  9996
2 46460  97.2167 252.3764 0006734 195.7513 164.3543 15.72549993324610
HAIYANG-2C              
1 46469U 20066A   26198.31268057 -.00000287  00000+0 -18692-3 0  9998
2 46469  65.9972 140.2791 0007513 237.0525 122.9821 13.83372097293667
HJ-2A                   
1 46478U 20067A   26198.32165953  .00000474  00000+0  75069-4 0  9999
2 46478  97.8824 275.9805 0004335 149.7085 210.4377 14.76550783312707
HJ-2B                   
1 46479U 20067B   26198.29046976 -.00000243  00000+0 -27763-4 0  9993
2 46479  97.8889 276.9958 0001992 103.4436 256.6997 14.76510328312703
GONETS-M 17             
1 46486U 20068A   26198.31558851  .00000069  00000+0  43092-3 0  9991
2 46486  82.5018 328.7587 0021742 331.8356  28.1546 12.42874151262909
GONETS-M 18             
1 46487U 20068B   26198.27923344  .00000069  00000+0  42754-3 0  9994
2 46487  82.4972 327.8878 0018980 328.4730  31.5211 12.42875073262887
GONETS-M 19             
1 46488U 20068C   26198.33472683  .00000126  00000+0  83523-3 0  9990
2 46488  82.4997 328.3092 0012951 345.2444  14.8256 12.42893178262991
DEKART                  
1 46493U 20068H   26198.27132046  .00006315  00000+0  17132-3 0  9994
2 46493  97.8741 209.7108 0009492 165.9301 194.2208 15.37977421320399
